{"spkid": "20506074", "covariance": {"epoch": "2459076.5", "elements": [{"label": "e", "name": "e", "sigma": 2.85801385250534e-08, "value": ".687209170714136", "title": "eccentricity", "units": null}, {"label": "q", "name": "q", "sigma": 4.60819750247281e-08, "units": "au", "value": ".4873506693570099", "title": "perihelion distance"}, {"label": "tp", "sigma": 1.41006427748919e-05, "name": "tp", "value": "2459401.452720431098", "title": "time of perihelion passage", "units": "TDB"}, {"label": "node", "title": "longitude of the ascending node", "value": "150.0693615355514", "units": "deg", "name": "om", "sigma": 2.74320713683253e-05}, {"label": "peri", "units": "deg", "title": "argument of perihelion", "value": "132.2295193593332", "name": "w", "sigma": 2.78700393139747e-05}, {"label": "i", "title": "inclination", "value": "6.004375475723002", "units": "deg", "sigma": 2.75001880539567e-06, "name": "i"}], "data": [["8.168243181112403E-16", "-1.316423075065559E-15", "-1.658935385646799E-13", "5.295997403593975E-14", "-9.634374153740543E-14", "-2.644523946511233E-16"], ["-1.316423075065559E-15", "2.123548422179665E-15", "2.822010085610731E-13", "-8.779993521137914E-14", "1.617881329008686E-13", "-4.922628913503147E-17"], ["-1.658935385646799E-13", "2.822010085610731E-13", "1.988281266651117E-10", "-2.569793226738888E-11", "8.567425815606525E-11", "-7.13714235114383E-12"], ["5.295997403593975E-14", "-8.779993521137914E-14", "-2.569793226738888E-11", "7.525185395568942E-10", "-7.53192583327528E-10", "3.236489674673154E-12"], ["-9.634374153740543E-14", "1.617881329008686E-13", "8.567425815606525E-11", "-7.53192583327528E-10", "7.767390913624978E-10", "-5.775935561371648E-12"], ["-2.644523946511233E-16", "-4.922628913503147E-17", "-7.13714235114383E-12", "3.236489674673154E-12", "-5.775935561371648E-12", "7.56260343002981E-12"]], "labels": ["e", "q", "tp", "node", "peri", "i"]}, "elements": [{"label": "e", "sigma": "2.8584E-8", "name": "e", "units": null, "title": "eccentricity", "value": ".6871671019699741"}, {"sigma": "6.2013E-9", "name": "a", "units": "au", "title": "semi-major axis", "value": "1.558355291536632", "label": "a"}, {"label": "q", "units": "au", "value": ".4875048020118304", "title": "perihelion distance", "name": "q", "sigma": "4.602E-8"}, {"name": "i", "sigma": "2.7525E-6", "units": "deg", "title": "inclination; angle with respect to x-y ecliptic plane", "value": "6.010802711397172", "label": "i"}, {"units": "deg", "value": "149.9655504065941", "title": "longitude of the ascending node", "sigma": "2.7371E-5", "name": "om", "label": "node"}, {"name": "w", "sigma": "2.7809E-5", "value": "132.3404467947139", "title": "argument of perihelion", "units": "deg", "label": "peri"}, {"label": "M", "units": "deg", "title": "mean anomaly", "value": "191.7689899880238", "sigma": "1.2165E-5", "name": "ma"}, {"label": "tp", "units": "TDB", "title": "time of perihelion passage", "value": "2461532.548634372230", "name": "tp", "sigma": "2.5869E-5"}, {"label": "period", "title": "sidereal orbital period", "value": "710.5557314640912", "units": "d", "name": "per", "sigma": "4.2413E-6"}, {"name": "n", "sigma": "3.0242E-9", "title": "mean motion", "value": ".5066456916169326", "units": "deg/d", "label": "n"}, {"units": "au", "title": "aphelion distance", "value": "2.629205781061433", "name": "ad", "sigma": "1.0463E-8", "label": "Q"}], "epoch": "2461200.5"}